CTC2_L_00392001-01
1 75393U 24285AK  26037.47795139  .00000000  00000+0  00000-0 0  9990
2 75393 100.0000   0.0000 0000000   0.0000   0.0000 12.90383911    18
CTC2_L_00392001-02
1 75394U 26147IK  26037.47795139  .00000000  00000+0  00000-0 0  9990
2 75394 100.0000   0.0000 0000000   0.0000  90.0000 12.90383911    18
CTC2_L_00392001-03
1 75395U 24011VI  26037.47795139  .00000000  00000+0  00000-0 0  9999
2 75395 100.0000   0.0000 0000000   0.0000 180.0000 12.90383911    19
CTC2_L_00392001-04
1 75396U 25781RX  26037.47795139  .00000000  00000+0  00000-0 0  9995
2 75396 100.0000   0.0000 0000000   0.0000 270.0000 12.90383911    10
CTC2_L_00392002-01
1 75397U 26354XJ  26037.47795139  .00000000  00000+0  00000-0 0  9993
2 75397 100.0000  12.0000 0000000   0.0000  12.0000 12.90383911    18
CTC2_L_00392002-02
1 75398U 23667LI  26037.47795139  .00000000  00000+0  00000-0 0  9998
2 75398 100.0000  12.0000 0000000   0.0000 102.0000 12.90383911    19
CTC2_L_00392002-03
1 75399U 23044HG  26037.47795139  .00000000  00000+0  00000-0 0  9998
2 75399 100.0000  12.0000 0000000   0.0000 192.0000 12.90383911    19
CTC2_L_00392002-04
1 75400U 22062OG  26037.47795139  .00000000  00000+0  00000-0 0  9990
2 75400 100.0000  12.0000 0000000   0.0000 282.0000 12.90383911    12
CTC2_L_00392003-01
1 75401U 24205MK  26037.47795139  .00000000  00000+0  00000-0 0  9992
2 75401 100.0000  24.0000 0000000   0.0000  24.0000 12.90383911    10
CTC2_L_00392003-02
1 75402U 25525DO  26037.47795139  .00000000  00000+0  00000-0 0  9999
2 75402 100.0000  24.0000 0000000   0.0000 114.0000 12.90383911    11
CTC2_L_00392003-03
1 75403U 22424WO  26037.47795139  .00000000  00000+0  00000-0 0  9995
2 75403 100.0000  24.0000 0000000   0.0000 204.0000 12.90383911    12
CTC2_L_00392003-04
1 75404U 26095OL  26037.47795139  .00000000  00000+0  00000-0 0  9994
2 75404 100.0000  24.0000 0000000   0.0000 294.0000 12.90383911    12
CTC2_L_00392004-01
1 75405U 26508LM  26037.47795139  .00000000  00000+0  00000-0 0  9994
2 75405 100.0000  36.0000 0000000   0.0000  36.0000 12.90383911    10
CTC2_L_00392004-02
1 75406U 23082YY  26037.47795139  .00000000  00000+0  00000-0 0  9999
2 75406 100.0000  36.0000 0000000   0.0000 126.0000 12.90383911    11
CTC2_L_00392004-03
1 75407U 24906NX  26037.47795139  .00000000  00000+0  00000-0 0  9996
2 75407 100.0000  36.0000 0000000   0.0000 216.0000 12.90383911    12
CTC2_L_00392004-04
1 75408U 25849RK  26037.47795139  .00000000  00000+0  00000-0 0  9994
2 75408 100.0000  36.0000 0000000   0.0000 306.0000 12.90383911    13
CTC2_L_00392005-01
1 75409U 25554HM  26037.47795139  .00000000  00000+0  00000-0 0  9998
2 75409 100.0000  48.0000 0000000   0.0000  48.0000 12.90383911    10
CTC2_L_00392005-02
1 75410U 22128YF  26037.47795139  .00000000  00000+0  00000-0 0  9994
2 75410 100.0000  48.0000 0000000   0.0000 138.0000 12.90383911    12
CTC2_L_00392005-03
1 75411U 26264IW  26037.47795139  .00000000  00000+0  00000-0 0  9990
2 75411 100.0000  48.0000 0000000   0.0000 228.0000 12.90383911    13
CTC2_L_00392005-04
1 75412U 25382LG  26037.47795139  .00000000  00000+0  00000-0 0  9991
2 75412 100.0000  48.0000 0000000   0.0000 318.0000 12.90383911    14
CTC2_L_00392006-01
1 75413U 24504HT  26037.47795139  .00000000  00000+0  00000-0 0  9997
2 75413 100.0000  60.0000 0000000   0.0000  60.0000 12.90383911    13
CTC2_L_00392006-02
1 75414U 26972CU  26037.47795139  .00000000  00000+0  00000-0 0  9999
2 75414 100.0000  60.0000 0000000   0.0000 150.0000 12.90383911    14
CTC2_L_00392006-03
1 75415U 22848OE  26037.47795139  .00000000  00000+0  00000-0 0  9998
2 75415 100.0000  60.0000 0000000   0.0000 240.0000 12.90383911    15
CTC2_L_00392006-04
1 75416U 22407FT  26037.47795139  .00000000  00000+0  00000-0 0  9990
2 75416 100.0000  60.0000 0000000   0.0000 330.0000 12.90383911    16
CTC2_L_00392007-01
1 75417U 26604EZ  26037.47795139  .00000000  00000+0  00000-0 0  9994
2 75417 100.0000  72.0000 0000000   0.0000  72.0000 12.90383911    13
CTC2_L_00392007-02
1 75418U 24423WR  26037.47795139  .00000000  00000+0  00000-0 0  9992
2 75418 100.0000  72.0000 0000000   0.0000 162.0000 12.90383911    14
CTC2_L_00392007-03
1 75419U 24535VN  26037.47795139  .00000000  00000+0  00000-0 0  9997
2 75419 100.0000  72.0000 0000000   0.0000 252.0000 12.90383911    15
CTC2_L_00392007-04
1 75420U 23280YS  26037.47795139  .00000000  00000+0  00000-0 0  9995
2 75420 100.0000  72.0000 0000000   0.0000 342.0000 12.90383911    17
CTC2_L_00392008-01
1 75421U 25551RW  26037.47795139  .00000000  00000+0  00000-0 0  9999
2 75421 100.0000  84.0000 0000000   0.0000  84.0000 12.90383911    14
CTC2_L_00392008-02
1 75422U 26615L   26037.47795139  .00000000  00000+0  00000-0 0  9992
2 75422 100.0000  84.0000 0000000   0.0000 174.0000 12.90383911    15
CTC2_L_00392008-03
1 75423U 26706VG  26037.47795139  .00000000  00000+0  00000-0 0  9994
2 75423 100.0000  84.0000 0000000   0.0000 264.0000 12.90383911    16
CTC2_L_00392008-04
1 75424U 22312ED  26037.47795139  .00000000  00000+0  00000-0 0  9994
2 75424 100.0000  84.0000 0000000   0.0000 354.0000 12.90383911    17
CTC2_L_00392009-01
1 75425U 25877GU  26037.47795139  .00000000  00000+0  00000-0 0  9994
2 75425 100.0000  96.0000 0000000   0.0000  96.0000 12.90383911    14
CTC2_L_00392009-02
1 75426U 23960OJ  26037.47795139  .00000000  00000+0  00000-0 0  9996
2 75426 100.0000  96.0000 0000000   0.0000 186.0000 12.90383911    15
CTC2_L_00392009-03
1 75427U 22864IG  26037.47795139  .00000000  00000+0  00000-0 0  9999
2 75427 100.0000  96.0000 0000000   0.0000 276.0000 12.90383911    16
CTC2_L_00392009-04
1 75428U 26176DL  26037.47795139  .00000000  00000+0  00000-0 0  9990
2 75428 100.0000  96.0000 0000000   0.0000   6.0000 12.90383911    18
CTC2_L_00392010-01
1 75429U 22727D   26037.47795139  .00000000  00000+0  00000-0 0  9999
2 75429 100.0000 108.0000 0000000   0.0000 108.0000 12.90383911    16
CTC2_L_00392010-02
1 75430U 24075RP  26037.47795139  .00000000  00000+0  00000-0 0  9999
2 75430 100.0000 108.0000 0000000   0.0000 198.0000 12.90383911    17
CTC2_L_00392010-03
1 75431U 24259NC  26037.47795139  .00000000  00000+0  00000-0 0  9994
2 75431 100.0000 108.0000 0000000   0.0000 288.0000 12.90383911    18
CTC2_L_00392010-04
1 75432U 25645PS  26037.47795139  .00000000  00000+0  00000-0 0  9995
2 75432 100.0000 108.0000 0000000   0.0000  18.0000 12.90383911    10
CTC2_L_00392011-01
1 75433U 25599XP  26037.47795139  .00000000  00000+0  00000-0 0  9994
2 75433 100.0000 120.0000 0000000   0.0000 120.0000 12.90383911    19
CTC2_L_00392011-02
1 75434U 25063NK  26037.47795139  .00000000  00000+0  00000-0 0  9991
2 75434 100.0000 120.0000 0000000   0.0000 210.0000 12.90383911    10
CTC2_L_00392011-03
1 75435U 26607EQ  26037.47795139  .00000000  00000+0  00000-0 0  9997
2 75435 100.0000 120.0000 0000000   0.0000 300.0000 12.90383911    11
CTC2_L_00392011-04
1 75436U 22814FS  26037.47795139  .00000000  00000+0  00000-0 0  9994
2 75436 100.0000 120.0000 0000000   0.0000  30.0000 12.90383911    12
CTC2_L_00392012-01
1 75437U 22060GR  26037.47795139  .00000000  00000+0  00000-0 0  9998
2 75437 100.0000 132.0000 0000000   0.0000 132.0000 12.90383911    19
CTC2_L_00392012-02
1 75438U 22334ZU  26037.47795139  .00000000  00000+0  00000-0 0  9993
2 75438 100.0000 132.0000 0000000   0.0000 222.0000 12.90383911    10
CTC2_L_00392012-03
1 75439U 23712AV  26037.47795139  .00000000  00000+0  00000-0 0  9995
2 75439 100.0000 132.0000 0000000   0.0000 312.0000 12.90383911    11
CTC2_L_00392012-04
1 75440U 25022SC  26037.47795139  .00000000  00000+0  00000-0 0  9993
2 75440 100.0000 132.0000 0000000   0.0000  42.0000 12.90383911    13
CTC2_L_00392013-01
1 75441U 24464TG  26037.47795139  .00000000  00000+0  00000-0 0  9993
2 75441 100.0000 144.0000 0000000   0.0000 144.0000 12.90383911    10
CTC2_L_00392013-02
1 75442U 22327ZK  26037.47795139  .00000000  00000+0  00000-0 0  9990
2 75442 100.0000 144.0000 0000000   0.0000 234.0000 12.90383911    11
CTC2_L_00392013-03
1 75443U 25244SO  26037.47795139  .00000000  00000+0  00000-0 0  9992
2 75443 100.0000 144.0000 0000000   0.0000 324.0000 12.90383911    12
CTC2_L_00392013-04
1 75444U 23444HJ  26037.47795139  .00000000  00000+0  00000-0 0  9993
2 75444 100.0000 144.0000 0000000   0.0000  54.0000 12.90383911    13
CTC2_L_00392014-01
1 75445U 24545WG  26037.47795139  .00000000  00000+0  00000-0 0  9997
2 75445 100.0000 156.0000 0000000   0.0000 156.0000 12.90383911    10
CTC2_L_00392014-02
1 75446U 23883OR  26037.47795139  .00000000  00000+0  00000-0 0  9992
2 75446 100.0000 156.0000 0000000   0.0000 246.0000 12.90383911    11
CTC2_L_00392014-03
1 75447U 22870VD  26037.47795139  .00000000  00000+0  00000-0 0  9998
2 75447 100.0000 156.0000 0000000   0.0000 336.0000 12.90383911    12
CTC2_L_00392014-04
1 75448U 22673IV  26037.47795139  .00000000  00000+0  00000-0 0  9990
2 75448 100.0000 156.0000 0000000   0.0000  66.0000 12.90383911    13
CTC2_L_00392015-01
1 75449U 24400KB  26037.47795139  .00000000  00000+0  00000-0 0  9991
2 75449 100.0000 168.0000 0000000   0.0000 168.0000 12.90383911    10
CTC2_L_00392015-02
1 75450U 26415CQ  26037.47795139  .00000000  00000+0  00000-0 0  9991
2 75450 100.0000 168.0000 0000000   0.0000 258.0000 12.90383911    12
CTC2_L_00392015-03
1 75451U 23436MZ  26037.47795139  .00000000  00000+0  00000-0 0  9992
2 75451 100.0000 168.0000 0000000   0.0000 348.0000 12.90383911    13
CTC2_L_00392015-04
1 75452U 22112HE  26037.47795139  .00000000  00000+0  00000-0 0  9993
2 75452 100.0000 168.0000 0000000   0.0000  78.0000 12.90383911    14
CTC2_L_00392016-01
1 75453U 26531KV  26037.47795139  .00000000  00000+0  00000-0 0  9993
2 75453 100.0000 180.0000 0000000   0.0000 180.0000 12.90383911    13
CTC2_L_00392016-02
1 75454U 26279OL  26037.47795139  .00000000  00000+0  00000-0 0  9993
2 75454 100.0000 180.0000 0000000   0.0000 270.0000 12.90383911    14
